{"spkid": "54465219", "covariance": {"epoch": "2459726.5", "elements": [{"label": "e", "units": null, "title": "eccentricity", "value": ".5932329195743297", "sigma": 1.13129627769635e-07, "name": "e"}, {"label": "q", "sigma": 2.13845505939713e-07, "name": "q", "units": "au", "title": "perihelion distance", "value": ".769303231844534"}, {"units": "TDB", "title": "time of perihelion passage", "value": "2459675.222846809042", "sigma": 1.34232377477241e-05, "name": "tp", "label": "tp"}, {"units": "deg", "value": "304.8975182970819", "title": "longitude of the ascending node", "name": "om", "sigma": 2.82547371904564e-05, "label": "node"}, {"units": "deg", "value": "127.990201986924", "title": "argument of perihelion", "sigma": 3.31331216332143e-05, "name": "w", "label": "peri"}, {"label": "i", "name": "i", "sigma": 1.42974041994678e-05, "title": "inclination", "value": "13.38453148128604", "units": "deg"}], "data": [["1.279831267929609E-14", "-2.419197298097483E-14", "-6.964091029478378E-13", "-5.324782142351575E-13", "2.155774532002128E-12", "-4.807056421865376E-13"], ["-2.419197298097483E-14", "4.572990041061185E-14", "1.323071974873868E-12", "1.010575641238772E-12", "-4.073772573316722E-12", "9.129178713971824E-13"], ["-6.964091029478378E-13", "1.323071974873868E-12", "1.801833116319242E-10", "8.424230741424506E-11", "-6.364968460401265E-11", "9.219945965456714E-11"], ["-5.324782142351575E-13", "1.010575641238772E-12", "8.424230741424506E-11", "7.983301737017611E-10", "-7.987213747425223E-10", "3.310507891237294E-10"], ["2.155774532002128E-12", "-4.073772573316722E-12", "-6.364968460401265E-11", "-7.987213747425223E-10", "1.097803749161375E-9", "-3.29502006827003E-10"], ["-4.807056421865376E-13", "9.129178713971824E-13", "9.219945965456714E-11", "3.310507891237294E-10", "-3.29502006827003E-10", "2.044157668429581E-10"]], "labels": ["e", "q", "tp", "node", "peri", "i"]}, "elements": [{"name": "e", "sigma": "1.1328E-7", "units": null, "title": "eccentricity", "value": ".5933874509877979", "label": "e"}, {"sigma": "2.7056E-9", "name": "a", "units": "au", "title": "semi-major axis", "value": "1.891149422736316", "label": "a"}, {"name": "q", "sigma": "2.1409E-7", "title": "perihelion distance", "value": ".768965087341768", "units": "au", "label": "q"}, {"units": "deg", "title": "inclination; angle with respect to x-y ecliptic plane", "value": "13.38891944823026", "sigma": "1.43E-5", "name": "i", "label": "i"}, {"label": "node", "name": "om", "sigma": "2.8259E-5", "title": "longitude of the ascending node", "value": "304.8461197383612", "units": "deg"}, {"name": "w", "sigma": "3.3135E-5", "value": "128.0700149380924", "title": "argument of perihelion", "units": "deg", "label": "peri"}, {"units": "deg", "value": "218.0187152709977", "title": "mean anomaly", "sigma": "5.7073E-6", "name": "ma", "label": "M"}, {"title": "time of perihelion passage", "value": "2461575.141423088601", "units": "TDB", "sigma": "1.5552E-5", "name": "tp", "label": "tp"}, {"label": "period", "sigma": "2.0385E-6", "name": "per", "title": "sidereal orbital period", "value": "949.9203544278579", "units": "d"}, {"label": "n", "name": "n", "sigma": "8.1328E-10", "units": "deg/d", "value": ".3789791410637052", "title": "mean motion"}, {"name": "ad", "sigma": "4.311E-9", "value": "3.013333758130864", "title": "aphelion distance", "units": "au", "label": "Q"}], "epoch": "2461200.5"}